ONEWEB-0033             
1 45142U 20008M   26098.26208092 -.00000246  00000+0 -74104-3 0  9992
2 45142  87.8818  50.1937 0002238  69.8546 290.2822 13.10368773299055
ONEWEB-0035             
1 45143U 20008N   26098.14007970 -.00000099  00000+0 -32000-3 0  9997
2 45143  87.8822  50.2161 0001968  77.7051 282.4296 13.10376633298768
ONEWEB-0036             
1 45144U 20008P   26098.15256897  .00000596  00000+0  16853-2 0  9990
2 45144  87.8840  50.1953 0001705  86.0068 274.1254 13.09820464299191
ONEWEB-0038             
1 45145U 20008Q   26098.20475234  .00000391  00000+0  10680-2 0  9990
2 45145  87.8920  34.9785 0003464  91.9375 268.2150 13.11415217301152
ONEWEB-0039             
1 45146U 20008R   26097.88360965 -.00000429  00000+0 -12646-2 0  9996
2 45146  87.8829  50.2556 0001768  97.7377 262.3951 13.10371583298952
ONEWEB-0040             
1 45147U 20008S   26098.10604856 -.00000088  00000+0 -28757-3 0  9995
2 45147  87.8822  50.2251 0001930  83.0335 277.1012 13.10370098298683
ONEWEB-0043             
1 45149U 20008U   26098.26041872 -.00000150  00000+0 -46484-3 0  9994
2 45149  87.8829  50.1789 0001741  98.9438 261.1886 13.10371099299029
ONEWEB-0044             
1 45150U 20008V   26098.13593191 -.00000222  00000+0 -67238-3 0  9998
2 45150  87.8837  50.2006 0001920  86.1062 274.0285 13.10375537299302
ONEWEB-0045             
1 45151U 20008W   26098.19952759  .00000555  00000+0  15290-2 0  9991
2 45151  87.8922  34.9658 0001888  82.7089 277.4254 13.11416709301231
ONEWEB-0047             
1 45152U 20008X   26098.12926927 -.00000324  00000+0 -96521-3 0  9996
2 45152  87.8831  50.2027 0002057  78.8317 281.3041 13.10377816299026
ONEWEB-0048             
1 45153U 20008Y   26098.12429976 -.00000639  00000+0 -18657-2 0  9991
2 45153  87.8824  50.2296 0001960  79.6737 280.4612 13.10372964298633
ONEWEB-0049             
1 45154U 20008Z   26098.12747982 -.00000629  00000+0 -18381-2 0  9995
2 45154  87.8826  50.2170 0001422  79.5619 280.5668 13.10374915298852
ONEWEB-0051             
1 45155U 20008AA  26098.19781899  .00000367  00000+0  99932-3 0  9997
2 45155  87.8921  34.9784 0001890  80.0291 280.1050 13.11415470301917
ONEWEB-0052             
1 45156U 20008AB  26098.25001157  .00081888  00000+0  23311+0 0  9998
2 45156  87.8851  50.1767 0001895  83.5273  35.9882 13.10188214  5208
ONEWEB-0053             
1 45157U 20008AC  26098.10438494  .00000000  00000+0 -35809-4 0  9999
2 45157  87.8818  50.2308 0001588  95.1451 264.9858 13.10369863298730
ONEWEB-0054             
1 45158U 20008AD  26098.13922919 -.00000143  00000+0 -44684-3 0  9992
2 45158  87.8834  50.2006 0001803  78.9487 281.1843 13.10377865298851
