[{"OBJECT_NAME":"ONEWEB-0033","OBJECT_ID":"2020-008M","EPOCH":"2026-04-08T06:17:23.791488","MEAN_MOTION":13.10368773,"ECCENTRICITY":0.0002238,"INCLINATION":87.8818,"RA_OF_ASC_NODE":50.1937,"ARG_OF_PERICENTER":69.8546,"MEAN_ANOMALY":290.2822,"EPHEMERIS_TYPE":0,"CLASSIFICATION_TYPE":"U","NORAD_CAT_ID":45142,"ELEMENT_SET_NO":999,"REV_AT_EPOCH":29905,"BSTAR":-0.0007410400000000001,"MEAN_MOTION_DOT":-2.46e-06,"MEAN_MOTION_DDOT":0.0},{"OBJECT_NAME":"ONEWEB-0035","OBJECT_ID":"2020-008N","EPOCH":"2026-04-08T03:21:42.886080","MEAN_MOTION":13.10376633,"ECCENTRICITY":0.0001968,"INCLINATION":87.8822,"RA_OF_ASC_NODE":50.2161,"ARG_OF_PERICENTER":77.7051,"MEAN_ANOMALY":282.4296,"EPHEMERIS_TYPE":0,"CLASSIFICATION_TYPE":"U","NORAD_CAT_ID":45143,"ELEMENT_SET_NO":999,"REV_AT_EPOCH":29876,"BSTAR":-0.00032,"MEAN_MOTION_DOT":-9.9e-07,"MEAN_MOTION_DDOT":0.0},{"OBJECT_NAME":"ONEWEB-0036","OBJECT_ID":"2020-008P","EPOCH":"2026-04-08T03:39:41.959008","MEAN_MOTION":13.09820464,"ECCENTRICITY":0.0001705,"INCLINATION":87.884,"RA_OF_ASC_NODE":50.1953,"ARG_OF_PERICENTER":86.0068,"MEAN_ANOMALY":274.1254,"EPHEMERIS_TYPE":0,"CLASSIFICATION_TYPE":"U","NORAD_CAT_ID":45144,"ELEMENT_SET_NO":999,"REV_AT_EPOCH":29919,"BSTAR":0.0016853000000000003,"MEAN_MOTION_DOT":5.96e-06,"MEAN_MOTION_DDOT":0.0},{"OBJECT_NAME":"ONEWEB-0038","OBJECT_ID":"2020-008Q","EPOCH":"2026-04-08T04:54:50.602176","MEAN_MOTION":13.11415217,"ECCENTRICITY":0.0003464,"INCLINATION":87.892,"RA_OF_ASC_NODE":34.9785,"ARG_OF_PERICENTER":91.9375,"MEAN_ANOMALY":268.215,"EPHEMERIS_TYPE":0,"CLASSIFICATION_TYPE":"U","NORAD_CAT_ID":45145,"ELEMENT_SET_NO":999,"REV_AT_EPOCH":30115,"BSTAR":0.0010680000000000002,"MEAN_MOTION_DOT":3.91e-06,"MEAN_MOTION_DDOT":0.0},{"OBJECT_NAME":"ONEWEB-0039","OBJECT_ID":"2020-008R","EPOCH":"2026-04-07T21:12:23.873760","MEAN_MOTION":13.10371583,"ECCENTRICITY":0.0001768,"INCLINATION":87.8829,"RA_OF_ASC_NODE":50.2556,"ARG_OF_PERICENTER":97.7377,"MEAN_ANOMALY":262.3951,"EPHEMERIS_TYPE":0,"CLASSIFICATION_TYPE":"U","NORAD_CAT_ID":45146,"ELEMENT_SET_NO":999,"REV_AT_EPOCH":29895,"BSTAR":-0.0012645999999999998,"MEAN_MOTION_DOT":-4.29e-06,"MEAN_MOTION_DDOT":0.0},{"OBJECT_NAME":"ONEWEB-0040","OBJECT_ID":"2020-008S","EPOCH":"2026-04-08T02:32:42.595584","MEAN_MOTION":13.10370098,"ECCENTRICITY":0.000193,"INCLINATION":87.8822,"RA_OF_ASC_NODE":50.2251,"ARG_OF_PERICENTER":83.0335,"MEAN_ANOMALY":277.1012,"EPHEMERIS_TYPE":0,"CLASSIFICATION_TYPE":"U","NORAD_CAT_ID":45147,"ELEMENT_SET_NO":999,"REV_AT_EPOCH":29868,"BSTAR":-0.00028757,"MEAN_MOTION_DOT":-8.8e-07,"MEAN_MOTION_DDOT":0.0},{"OBJECT_NAME":"ONEWEB-0043","OBJECT_ID":"2020-008U","EPOCH":"2026-04-08T06:15:00.177408","MEAN_MOTION":13.10371099,"ECCENTRICITY":0.0001741,"INCLINATION":87.8829,"RA_OF_ASC_NODE":50.1789,"ARG_OF_PERICENTER":98.9438,"MEAN_ANOMALY":261.1886,"EPHEMERIS_TYPE":0,"CLASSIFICATION_TYPE":"U","NORAD_CAT_ID":45149,"ELEMENT_SET_NO":999,"REV_AT_EPOCH":29902,"BSTAR":-0.00046484,"MEAN_MOTION_DOT":-1.5e-06,"MEAN_MOTION_DDOT":0.0},{"OBJECT_NAME":"ONEWEB-0044","OBJECT_ID":"2020-008V","EPOCH":"2026-04-08T03:15:44.517024","MEAN_MOTION":13.10375537,"ECCENTRICITY":0.000192,"INCLINATION":87.8837,"RA_OF_ASC_NODE":50.2006,"ARG_OF_PERICENTER":86.1062,"MEAN_ANOMALY":274.0285,"EPHEMERIS_TYPE":0,"CLASSIFICATION_TYPE":"U","NORAD_CAT_ID":45150,"ELEMENT_SET_NO":999,"REV_AT_EPOCH":29930,"BSTAR":-0.00067238,"MEAN_MOTION_DOT":-2.22e-06,"MEAN_MOTION_DDOT":0.0},{"OBJECT_NAME":"ONEWEB-0045","OBJECT_ID":"2020-008W","EPOCH":"2026-04-08T04:47:19.183776","MEAN_MOTION":13.11416709,"ECCENTRICITY":0.0001888,"INCLINATION":87.8922,"RA_OF_ASC_NODE":34.9658,"ARG_OF_PERICENTER":82.7089,"MEAN_ANOMALY":277.4254,"EPHEMERIS_TYPE":0,"CLASSIFICATION_TYPE":"U","NORAD_CAT_ID":45151,"ELEMENT_SET_NO":999,"REV_AT_EPOCH":30123,"BSTAR":0.0015290000000000002,"MEAN_MOTION_DOT":5.55e-06,"MEAN_MOTION_DDOT":0.0},{"OBJECT_NAME":"ONEWEB-0047","OBJECT_ID":"2020-008X","EPOCH":"2026-04-08T03:06:08.864928","MEAN_MOTION":13.10377816,"ECCENTRICITY":0.0002057,"INCLINATION":87.8831,"RA_OF_ASC_NODE":50.2027,"ARG_OF_PERICENTER":78.8317,"MEAN_ANOMALY":281.3041,"EPHEMERIS_TYPE":0,"CLASSIFICATION_TYPE":"U","NORAD_CAT_ID":45152,"ELEMENT_SET_NO":999,"REV_AT_EPOCH":29902,"BSTAR":-0.00096521,"MEAN_MOTION_DOT":-3.24e-06,"MEAN_MOTION_DDOT":0.0},{"OBJECT_NAME":"ONEWEB-0048","OBJECT_ID":"2020-008Y","EPOCH":"2026-04-08T02:58:59.499264","MEAN_MOTION":13.10372964,"ECCENTRICITY":0.000196,"INCLINATION":87.8824,"RA_OF_ASC_NODE":50.2296,"ARG_OF_PERICENTER":79.6737,"MEAN_ANOMALY":280.4612,"EPHEMERIS_TYPE":0,"CLASSIFICATION_TYPE":"U","NORAD_CAT_ID":45153,"ELEMENT_SET_NO":999,"REV_AT_EPOCH":29863,"BSTAR":-0.0018657,"MEAN_MOTION_DOT":-6.39e-06,"MEAN_MOTION_DDOT":0.0},{"OBJECT_NAME":"ONEWEB-0049","OBJECT_ID":"2020-008Z","EPOCH":"2026-04-08T03:03:34.256448","MEAN_MOTION":13.10374915,"ECCENTRICITY":0.0001422,"INCLINATION":87.8826,"RA_OF_ASC_NODE":50.217,"ARG_OF_PERICENTER":79.5619,"MEAN_ANOMALY":280.5668,"EPHEMERIS_TYPE":0,"CLASSIFICATION_TYPE":"U","NORAD_CAT_ID":45154,"ELEMENT_SET_NO":999,"REV_AT_EPOCH":29885,"BSTAR":-0.0018381,"MEAN_MOTION_DOT":-6.29e-06,"MEAN_MOTION_DDOT":0.0},{"OBJECT_NAME":"ONEWEB-0051","OBJECT_ID":"2020-008AA","EPOCH":"2026-04-08T04:44:51.560736","MEAN_MOTION":13.1141547,"ECCENTRICITY":0.000189,"INCLINATION":87.8921,"RA_OF_ASC_NODE":34.9784,"ARG_OF_PERICENTER":80.0291,"MEAN_ANOMALY":280.105,"EPHEMERIS_TYPE":0,"CLASSIFICATION_TYPE":"U","NORAD_CAT_ID":45155,"ELEMENT_SET_NO":999,"REV_AT_EPOCH":30191,"BSTAR":0.00099932,"MEAN_MOTION_DOT":3.67e-06,"MEAN_MOTION_DDOT":0.0},{"OBJECT_NAME":"ONEWEB-0052","OBJECT_ID":"2020-008AB","EPOCH":"2026-04-08T06:00:00.999648","MEAN_MOTION":13.10188214,"ECCENTRICITY":0.0001895,"INCLINATION":87.8851,"RA_OF_ASC_NODE":50.1767,"ARG_OF_PERICENTER":83.5273,"MEAN_ANOMALY":35.9882,"EPHEMERIS_TYPE":0,"CLASSIFICATION_TYPE":"U","NORAD_CAT_ID":45156,"ELEMENT_SET_NO":999,"REV_AT_EPOCH":520,"BSTAR":0.23311,"MEAN_MOTION_DOT":0.00081888,"MEAN_MOTION_DDOT":0.0},{"OBJECT_NAME":"ONEWEB-0053","OBJECT_ID":"2020-008AC","EPOCH":"2026-04-08T02:30:18.858816","MEAN_MOTION":13.10369863,"ECCENTRICITY":0.0001588,"INCLINATION":87.8818,"RA_OF_ASC_NODE":50.2308,"ARG_OF_PERICENTER":95.1451,"MEAN_ANOMALY":264.9858,"EPHEMERIS_TYPE":0,"CLASSIFICATION_TYPE":"U","NORAD_CAT_ID":45157,"ELEMENT_SET_NO":999,"REV_AT_EPOCH":29873,"BSTAR":-3.5809e-05,"MEAN_MOTION_DOT":0.0,"MEAN_MOTION_DDOT":0.0},{"OBJECT_NAME":"ONEWEB-0054","OBJECT_ID":"2020-008AD","EPOCH":"2026-04-08T03:20:29.402016","MEAN_MOTION":13.10377865,"ECCENTRICITY":0.0001803,"INCLINATION":87.8834,"RA_OF_ASC_NODE":50.2006,"ARG_OF_PERICENTER":78.9487,"MEAN_ANOMALY":281.1843,"EPHEMERIS_TYPE":0,"CLASSIFICATION_TYPE":"U","NORAD_CAT_ID":45158,"ELEMENT_SET_NO":999,"REV_AT_EPOCH":29885,"BSTAR":-0.00044684,"MEAN_MOTION_DOT":-1.43e-06,"MEAN_MOTION_DDOT":0.0}]